start=new Date('2022-12-26T00:00:00.000Z').valueOf();
sats=[{"NORAD_CAT_ID":"44957","TLE_LINE2":"2 44957  53.0541 158.8606 0001351  78.1806 281.9335 15.06404654164066","REV_AT_EPOCH":"16406","ELEMENT_SET_NO":"999","DECAY_DATE":null,"SITE":"AFETR","PERIOD":"95.592","OBJECT_ID":"2020-001AV","EPOCH":"2022-12-25T16:56:18.830400","FILE":"3722315","SEMIMAJOR_AXIS":"6925.334","LAUNCH_DATE":"2020-01-07","CENTER_NAME":"EARTH","OBJECT_TYPE":"PAYLOAD","OBJECT_NAME":"STARLINK-1074","TIME_SYSTEM":"UTC","APOAPSIS":"548.135","BSTAR":"0.00012093000000","TLE_LINE1":"1 44957U 20001AV  22359.70577350  .00001520  00000-0  12093-3 0  9993","ARG_OF_PERICENTER":"78.1806","MEAN_ANOMALY":"281.9335","EPHEMERIS_TYPE":"0","CLASSIFICATION_TYPE":"U","MEAN_MOTION_DOT":"0.00001520","PERIAPSIS":"546.264","RCS_SIZE":"LARGE","INCLINATION":"53.0541","MEAN_MOTION":"15.06404654","GP_ID":"221447869","COUNTRY_CODE":"US","RA_OF_ASC_NODE":"158.8606","REF_FRAME":"TEME","MEAN_ELEMENT_THEORY":"SGP4","ECCENTRICITY":"0.00013510","MEAN_MOTION_DDOT":"0.0000000000000"},{"MEAN_MOTION_DOT":"-0.00000237","RCS_SIZE":"LARGE","INCLINATION":"53.0537","PERIAPSIS":"546.088","CLASSIFICATION_TYPE":"U","MEAN_MOTION":"15.06396187","COUNTRY_CODE":"US","RA_OF_ASC_NODE":"158.5093","GP_ID":"221448119","MEAN_ELEMENT_THEORY":"SGP4","MEAN_MOTION_DDOT":"0.0000000000000","ECCENTRICITY":"0.00016420","REF_FRAME":"TEME","DECAY_DATE":null,"PERIOD":"95.592","SITE":"AFETR","OBJECT_ID":"2020-001AX","ELEMENT_SET_NO":"999","EPOCH":"2022-12-25T18:54:27.514944","TLE_LINE2":"2 44959  53.0537 158.5093 0001642  88.2722 271.8454 15.06396187164074","NORAD_CAT_ID":"44959","REV_AT_EPOCH":"16407","CENTER_NAME":"EARTH","OBJECT_TYPE":"PAYLOAD","FILE":"3722315","LAUNCH_DATE":"2020-01-07","SEMIMAJOR_AXIS":"6925.360","ARG_OF_PERICENTER":"88.2722","OBJECT_NAME":"STARLINK-1076","TLE_LINE1":"1 44959U 20001AX  22359.78781846 -.00000237  00000-0  29692-5 0  9990","APOAPSIS":"548.362","TIME_SYSTEM":"UTC","BSTAR":"0.00000296920000","MEAN_ANOMALY":"271.8454","EPHEMERIS_TYPE":"0"},{"CENTER_NAME":"EARTH","OBJECT_TYPE":"PAYLOAD","FILE":"3722223","SEMIMAJOR_AXIS":"6925.366","LAUNCH_DATE":"2020-01-07","SITE":"AFETR","DECAY_DATE":null,"PERIOD":"95.593","OBJECT_ID":"2020-001AZ","ELEMENT_SET_NO":"999","EPOCH":"2022-12-25T20:40:37.065504","TLE_LINE2":"2 44961  53.0541 158.1910 0001502  83.5883 276.5277 15.06394198164094","NORAD_CAT_ID":"44961","REV_AT_EPOCH":"16409","MEAN_ANOMALY":"276.5277","EPHEMERIS_TYPE":"0","ARG_OF_PERICENTER":"83.5883","OBJECT_NAME":"STARLINK-1080","TLE_LINE1":"1 44961U 20001AZ  22359.86154011 -.00000171  00000-0  74448-5 0  9996","BSTAR":"0.00000744480000","APOAPSIS":"548.272","TIME_SYSTEM":"UTC","MEAN_MOTION":"15.06394198","MEAN_MOTION_DOT":"-0.00000171","RCS_SIZE":"LARGE","INCLINATION":"53.0541","PERIAPSIS":"546.191","CLASSIFICATION_TYPE":"U","MEAN_ELEMENT_THEORY":"SGP4","ECCENTRICITY":"0.00015020","MEAN_MOTION_DDOT":"0.0000000000000","REF_FRAME":"TEME","COUNTRY_CODE":"US","RA_OF_ASC_NODE":"158.1910","GP_ID":"221427466"},{"EPHEMERIS_TYPE":"0","MEAN_ANOMALY":"130.5193","BSTAR":"0.00190010000000","APOAPSIS":"483.207","TIME_SYSTEM":"UTC","TLE_LINE1":"1 44963U 20001BB  22359.65434045  .00052336  00000-0  19001-2 0  9993","OBJECT_NAME":"STARLINK-1085","ARG_OF_PERICENTER":"229.5693","LAUNCH_DATE":"2020-01-07","SEMIMAJOR_AXIS":"6860.465","FILE":"3722315","OBJECT_TYPE":"PAYLOAD","CENTER_NAME":"EARTH","REV_AT_EPOCH":"16519","NORAD_CAT_ID":"44963","TLE_LINE2":"2 44963  52.9749 127.2388 0001278 229.5693 130.5193 15.27820764165195","EPOCH":"2022-12-25T15:42:15.014880","ELEMENT_SET_NO":"999","SITE":"AFETR","DECAY_DATE":null,"PERIOD":"94.252","OBJECT_ID":"2020-001BB","REF_FRAME":"TEME","ECCENTRICITY":"0.00012780","MEAN_MOTION_DDOT":"0.0000000000000","MEAN_ELEMENT_THEORY":"SGP4","GP_ID":"221449120","RA_OF_ASC_NODE":"127.2388","COUNTRY_CODE":"US","MEAN_MOTION":"15.27820764","CLASSIFICATION_TYPE":"U","PERIAPSIS":"481.453","RCS_SIZE":"LARGE","INCLINATION":"52.9749","MEAN_MOTION_DOT":"0.00052336"},{"MEAN_MOTION":"15.06411064","MEAN_MOTION_DOT":"-0.00000153","PERIAPSIS":"546.020","RCS_SIZE":"LARGE","INCLINATION":"53.0548","CLASSIFICATION_TYPE":"U","MEAN_ELEMENT_THEORY":"SGP4","MEAN_MOTION_DDOT":"0.0000000000000","ECCENTRICITY":"0.00016740","REF_FRAME":"TEME","COUNTRY_CODE":"US","RA_OF_ASC_NODE":"158.0464","GP_ID":"221448369","CENTER_NAME":"EARTH","OBJECT_TYPE":"PAYLOAD","FILE":"3722315","LAUNCH_DATE":"2020-01-07","SEMIMAJOR_AXIS":"6925.315","ELEMENT_SET_NO":"999","SITE":"AFETR","DECAY_DATE":null,"PERIOD":"95.591","OBJECT_ID":"2020-001BC","EPOCH":"2022-12-25T21:23:03.734880","NORAD_CAT_ID":"44964","TLE_LINE2":"2 44964  53.0548 158.0464 0001674  85.0017 275.1163 15.06411064164094","REV_AT_EPOCH":"16409","MEAN_ANOMALY":"275.1163","EPHEMERIS_TYPE":"0","ARG_OF_PERICENTER":"85.0017","OBJECT_NAME":"STARLINK-1086","BSTAR":"0.00000864550000","APOAPSIS":"548.339","TIME_SYSTEM":"UTC","TLE_LINE1":"1 44964U 20001BC  22359.89101545 -.00000153  00000-0  86455-5 0  9997"},{"SEMIMAJOR_AXIS":"6925.357","LAUNCH_DATE":"2020-01-07","FILE":"3722224","OBJECT_TYPE":"PAYLOAD","CENTER_NAME":"EARTH","REV_AT_EPOCH":"16408","TLE_LINE2":"2 44966  53.0539 158.2586 0001576  65.4011 294.7142 15.06397224164084","NORAD_CAT_ID":"44966","EPOCH":"2022-12-25T20:19:22.555776","DECAY_DATE":null,"SITE":"AFETR","PERIOD":"95.592","OBJECT_ID":"2020-001BE","ELEMENT_SET_NO":"999","EPHEMERIS_TYPE":"0","MEAN_ANOMALY":"294.7142","TLE_LINE1":"1 44966U 20001BE  22359.84678884 -.00000376  00000-0 -63315-5 0  9997","APOAPSIS":"548.314","BSTAR":"-0.00000633150000","TIME_SYSTEM":"UTC","OBJECT_NAME":"STARLINK-1088","ARG_OF_PERICENTER":"65.4011","MEAN_MOTION":"15.06397224","CLASSIFICATION_TYPE":"U","RCS_SIZE":"LARGE","INCLINATION":"53.0539","PERIAPSIS":"546.131","MEAN_MOTION_DOT":"-0.00000376","REF_FRAME":"TEME","ECCENTRICITY":"0.00015760","MEAN_MOTION_DDOT":"0.0000000000000","MEAN_ELEMENT_THEORY":"SGP4","GP_ID":"221427090","RA_OF_ASC_NODE":"158.2586","COUNTRY_CODE":"US"},{"ARG_OF_PERICENTER":"62.5760","OBJECT_NAME":"STARLINK-1089","TLE_LINE1":"1 44967U 20001BF  22359.86889716 -.00000076  00000-0  13790-4 0  9995","APOAPSIS":"548.486","TIME_SYSTEM":"UTC","BSTAR":"0.00001379000000","MEAN_ANOMALY":"297.5416","EPHEMERIS_TYPE":"0","SITE":"AFETR","DECAY_DATE":null,"PERIOD":"95.592","OBJECT_ID":"2020-001BF","ELEMENT_SET_NO":"999","EPOCH":"2022-12-25T20:51:12.714624","TLE_LINE2":"2 44967  53.0535 158.1426 0001842  62.5760 297.5416 15.06401188164099","NORAD_CAT_ID":"44967","REV_AT_EPOCH":"16409","CENTER_NAME":"EARTH","OBJECT_TYPE":"PAYLOAD","FILE":"3722224","LAUNCH_DATE":"2020-01-07","SEMIMAJOR_AXIS":"6925.345","COUNTRY_CODE":"US","RA_OF_ASC_NODE":"158.1426","GP_ID":"221427479","MEAN_ELEMENT_THEORY":"SGP4","MEAN_MOTION_DDOT":"0.0000000000000","ECCENTRICITY":"0.00018420","REF_FRAME":"TEME","MEAN_MOTION_DOT":"-0.00000076","RCS_SIZE":"LARGE","INCLINATION":"53.0535","PERIAPSIS":"545.934","CLASSIFICATION_TYPE":"U","MEAN_MOTION":"15.06401188"},{"CENTER_NAME":"EARTH","OBJECT_TYPE":"PAYLOAD","FILE":"3722224","LAUNCH_DATE":"2020-01-07","SEMIMAJOR_AXIS":"6925.363","DECAY_DATE":null,"SITE":"AFETR","PERIOD":"95.592","OBJECT_ID":"2020-001BG","ELEMENT_SET_NO":"999","EPOCH":"2022-12-25T19:10:23.112768","TLE_LINE2":"2 44968  53.0541 158.4643 0001527  71.8270 288.2886 15.06395163164082","NORAD_CAT_ID":"44968","REV_AT_EPOCH":"16408","MEAN_ANOMALY":"288.2886","EPHEMERIS_TYPE":"0","ARG_OF_PERICENTER":"71.8270","OBJECT_NAME":"STARLINK-1090","TLE_LINE1":"1 44968U 20001BG  22359.79887862 -.00000458  00000-0 -11877-4 0  9997","APOAPSIS":"548.286","TIME_SYSTEM":"UTC","BSTAR":"-0.00001187700000","MEAN_MOTION":"15.06395163","MEAN_MOTION_DOT":"-0.00000458","RCS_SIZE":"LARGE","INCLINATION":"53.0541","PERIAPSIS":"546.171","CLASSIFICATION_TYPE":"U","MEAN_ELEMENT_THEORY":"SGP4","ECCENTRICITY":"0.00015270","MEAN_MOTION_DDOT":"0.0000000000000","REF_FRAME":"TEME","COUNTRY_CODE":"US","RA_OF_ASC_NODE":"158.4643","GP_ID":"221427085"},{"MEAN_MOTION":"15.06406884","MEAN_MOTION_DOT":"0.00003244","INCLINATION":"53.0529","RCS_SIZE":"LARGE","PERIAPSIS":"545.994","CLASSIFICATION_TYPE":"U","MEAN_ELEMENT_THEORY":"SGP4","MEAN_MOTION_DDOT":"0.0000000000000","ECCENTRICITY":"0.00017300","REF_FRAME":"TEME","COUNTRY_CODE":"US","RA_OF_ASC_NODE":"158.2047","GP_ID":"221427100","CENTER_NAME":"EARTH","OBJECT_TYPE":"PAYLOAD","FILE":"3722237","LAUNCH_DATE":"2020-01-07","SEMIMAJOR_AXIS":"6925.327","PERIOD":"95.592","DECAY_DATE":null,"SITE":"AFETR","OBJECT_ID":"2020-001BH","ELEMENT_SET_NO":"999","EPOCH":"2022-12-25T20:35:17.942784","TLE_LINE2":"2 44969  53.0529 158.2047 0001730  62.8394 297.2771 15.06406884164084","NORAD_CAT_ID":"44969","REV_AT_EPOCH":"16408","MEAN_ANOMALY":"297.2771","EPHEMERIS_TYPE":"0","ARG_OF_PERICENTER":"62.8394","OBJECT_NAME":"STARLINK-1092","TLE_LINE1":"1 44969U 20001BH  22359.85784656  .00003244  00000-0  23656-3 0  9993","TIME_SYSTEM":"UTC","APOAPSIS":"548.391","BSTAR":"0.00023656000000"},{"CLASSIFICATION_TYPE":"U","MEAN_MOTION_DOT":"0.00001465","PERIAPSIS":"546.360","RCS_SIZE":"LARGE","INCLINATION":"53.0549","MEAN_MOTION":"15.06399588","GP_ID":"221448120","COUNTRY_CODE":"US","RA_OF_ASC_NODE":"158.2930","REF_FRAME":"TEME","MEAN_ELEMENT_THEORY":"SGP4","ECCENTRICITY":"0.00012340","MEAN_MOTION_DDOT":"0.0000000000000","NORAD_CAT_ID":"44970","TLE_LINE2":"2 44970  53.0549 158.2930 0001234  93.0431 267.0699 15.06399588164071","REV_AT_EPOCH":"16407","ELEMENT_SET_NO":"999","SITE":"AFETR","DECAY_DATE":null,"OBJECT_ID":"2020-001BJ","PERIOD":"95.592","EPOCH":"2022-12-25T20:03:26.591616","FILE":"3722315","LAUNCH_DATE":"2020-01-07","SEMIMAJOR_AXIS":"6925.350","CENTER_NAME":"EARTH","OBJECT_TYPE":"PAYLOAD","OBJECT_NAME":"STARLINK-1093","TIME_SYSTEM":"UTC","APOAPSIS":"548.069","BSTAR":"0.00011724000000","TLE_LINE1":"1 44970U 20001BJ  22359.83572444  .00001465  00000-0  11724-3 0  9999","ARG_OF_PERICENTER":"93.0431","MEAN_ANOMALY":"267.0699","EPHEMERIS_TYPE":"0"}];
